TIANWANG 1C (TW-1C)     
1 40926U 15051B   17172.48171563  .00007884  00000-0  18189-3 0  9993
2 40926  97.2300 212.0097 0012563 145.6117 320.1430 15.42746483 97583
TIANWANG 1B (TW-1B)     
1 40927U 15051C   17172.49556197  .00007607  00000-0  18218-3 0  9991
2 40927  97.2389 212.0387 0012209 155.2454 340.8614 15.41640959 97539
TIANWANG 1A (TW-1A)     
1 40928U 15051D   17172.39347959  .00003695  00000-0  10700-3 0  9996
2 40928  97.2276 208.1333 0012576 174.6974 310.4949 15.36126743 97348
LAPAN-A2 (IO-86)        
1 40931U 15052B   17172.43240509  .00000712  00000-0  10183-4 0  9992
2 40931   5.9999 202.4711 0013477 306.0597  53.8296 14.76531566 93592
LQSAT                   
1 40958U 15057A   17172.45976534  .00000022  00000-0  11170-4 0  9993
2 40958  97.9774 247.7049 0019459  54.8140 305.4890 14.72968882 91749
CHUBUSAT-2              
1 41338U 16012B   17172.14598379  .00000363  00000-0  21834-4 0  9997
2 41338  31.0036  87.1162 0013843  99.1636 261.0566 14.99745185 73584
CHUBUSAT-3              
1 41339U 16012C   17172.20674632  .00000372  00000-0  22389-4 0  9998
2 41339  31.0116  85.8662 0013664 106.0359 254.1785 14.99950589 73576
OUFTI-1                 
1 41458U 16025C   17172.57119820  .00001661  00000-0  93380-4 0  9998
2 41458  98.1856 210.4022 0172916 275.0408  83.1093 15.03191325 63243
E-ST@R-II               
1 41459U 16025D   17172.59262497  .00001321  00000-0  75541-4 0  9992
2 41459  98.1829 210.3715 0173500 275.1842  82.9612 15.03016899 63230
AAUSAT 4                
1 41460U 16025E   17172.45440738  .00002306  00000-0  12787-3 0  9991
2 41460  98.1775 210.3301 0166702 273.9837  84.2363 15.03912842 63230
NUSAT 1 (LO-87)         
1 41557U 16033B   17172.53521156  .00001305  00000-0  51863-4 0  9997
2 41557  97.4632 252.0522 0014135 359.3241   0.7976 15.27055978 59095
BEESAT-4                
1 41619U 16040W   17172.20510875  .00001516  00000-0  71905-4 0  9997
2 41619  97.4622 234.5538 0013536  59.1197 301.1368 15.20757952 43207
PRATHAM                 
1 41783U 16059A   17172.60698726  .00000050  00000-0  19232-4 0  9992
2 41783  98.1667 233.9357 0034486 145.2010 215.1456 14.62839753 39242
ALSAT 1N                
1 41789U 16059G   17172.45519090  .00000105  00000-0  29097-4 0  9998
2 41789  98.1665 234.2936 0029121 139.2021 221.1368 14.64051151 39236
NAYIF-1 (EO-88)         
1 42017U 17008BX  17172.57378982  .00001569  00000-0  69782-4 0  9994
2 42017  97.4950 234.0220 0006155 191.4659 168.6438 15.22982703 19156
LILACSAT-1              
1 42725U 98067ME  17172.52168962  .00007758  00000-0  11988-3 0  9994
2 42725  51.6410  16.5519 0006366 328.4329  31.6279 15.55132565  4176
